{
    "links": {
        "self": "http://www.neowsapp.com/rest/v1/neo/3824113?api_key=iIulBulltgU6a56xZRHN4H3l9WmuAYTsLGpBGhQ2"
    },
    "id": "3824113",
    "neo_reference_id": "3824113",
    "name": "(2018 JH3)",
    "designation": "2018 JH3",
    "nasa_jpl_url": "http://ssd.jpl.nasa.gov/sbdb.cgi?sstr=3824113",
    "absolute_magnitude_h": 24.9,
    "estimated_diameter": {
        "kilometers": {
            "estimated_diameter_min": 0.0278326768,
            "estimated_diameter_max": 0.0622357573
        },
        "meters": {
            "estimated_diameter_min": 27.8326768072,
            "estimated_diameter_max": 62.2357573367
        },
        "miles": {
            "estimated_diameter_min": 0.0172944182,
            "estimated_diameter_max": 0.0386714948
        },
        "feet": {
            "estimated_diameter_min": 91.3145593761,
            "estimated_diameter_max": 204.1855621004
        }
    },
    "is_potentially_hazardous_asteroid": false,
    "close_approach_data": [
        {
            "close_approach_date": "2018-05-10",
            "close_approach_date_full": "2018-May-10 19:59",
            "epoch_date_close_approach": 1525982340000,
            "relative_velocity": {
                "kilometers_per_second": "19.0429632432",
                "kilometers_per_hour": "68554.6676753544",
                "miles_per_hour": "42597.2044786112"
            },
            "miss_distance": {
                "astronomical": "0.028425488",
                "lunar": "11.057514832",
                "kilometers": "4252392.45851056",
                "miles": "2642314.147983328"
            },
            "orbiting_body": "Earth"
        }
    ],
    "orbital_data": {
        "orbit_id": "4",
        "orbit_determination_date": "2018-05-21 08:05:19",
        "first_observation_date": "2018-05-15",
        "last_observation_date": "2018-05-21",
        "data_arc_in_days": 6,
        "observations_used": 45,
        "orbit_uncertainty": "8",
        "minimum_orbit_intersection": ".00203049",
        "jupiter_tisserand_invariant": "3.303",
        "epoch_osculation": "2458255.5",
        "eccentricity": ".6866798600284932",
        "semi_major_axis": "2.207844959608196",
        "inclination": "1.796280726317733",
        "ascending_node_longitude": "44.32707919447427",
        "orbital_period": "1198.260618425671",
        "perihelion_distance": ".6917622917798257",
        "perihelion_argument": "106.7331572289905",
        "aphelion_distance": "3.723927627436566",
        "perihelion_time": "2458203.516579323366",
        "mean_anomaly": "15.61766376681525",
        "mean_motion": ".3004354766102421",
        "equinox": "J2000",
        "orbit_class": {
            "orbit_class_type": "APO",
            "orbit_class_description": "Near-Earth asteroid orbits which cross the Earth’s orbit similar to that of 1862 Apollo",
            "orbit_class_range": "a (semi-major axis) > 1.0 AU; q (perihelion) < 1.017 AU"
        }
    },
    "is_sentry_object": false
}